[{"OBJECT_NAME":"ISS OBJECT XW","OBJECT_ID":"1998-067XW","EPOCH":"2026-03-09T06:13:06.169152","MEAN_MOTION":15.68462358,"ECCENTRICITY":0.00051435,"INCLINATION":51.6252,"RA_OF_ASC_NODE":67.7624,"ARG_OF_PERICENTER":83.073,"MEAN_ANOMALY":277.0851,"EPHEMERIS_TYPE":0,"CLASSIFICATION_TYPE":"U","NORAD_CAT_ID":66910,"ELEMENT_SET_NO":999,"REV_AT_EPOCH":1511,"BSTAR":0.0012539699,"MEAN_MOTION_DOT":0.00146604,"MEAN_MOTION_DDOT":0},{"OBJECT_NAME":"STARLINK-36968","OBJECT_ID":"2026-039K","EPOCH":"2026-03-09T22:00:01.999584","MEAN_MOTION":15.83959674,"ECCENTRICITY":0.00017282,"INCLINATION":42.9983,"RA_OF_ASC_NODE":53.4425,"ARG_OF_PERICENTER":253.5231,"MEAN_ANOMALY":46.6646,"EPHEMERIS_TYPE":0,"CLASSIFICATION_TYPE":"U","NORAD_CAT_ID":67995,"ELEMENT_SET_NO":999,"REV_AT_EPOCH":291,"BSTAR":-0.0066275796,"MEAN_MOTION_DOT":-0.01342072,"MEAN_MOTION_DDOT":0}]
